{
  "type": "FeatureCollection",
  "features": [
    {
      "type": "Feature",
      "properties": {
        "type": "spain",
        "name": "Spain"
      },
      "geometry": {
        "type": "LineString",
        "coordinates": [
          [
            19,
            264
          ],
          [
            124,
            258
          ],
          [
            328,
            262
          ],
          [
            378,
            311
          ],
          [
            611,
            368
          ],
          [
            657,
            341
          ],
          [
            799,
            398
          ],
          [
            945,
            382
          ],
          [
            952,
            455
          ],
          [
            832,
            539
          ],
          [
            670,
            566
          ],
          [
            659,
            609
          ],
          [
            581,
            679
          ],
          [
            533,
            781
          ],
          [
            582,
            854
          ],
          [
            509,
            910
          ],
          [
            482,
            992
          ],
          [
            386,
            1017
          ],
          [
            297,
            1114
          ],
          [
            136,
            1116
          ],
          [
            16,
            1114
          ]
        ]
      }
    }
  ]
}