{
  "type": "FeatureCollection",
  "features": [
    {
      "type": "Feature",
      "properties": {
        "name": "BBOX"
      },
      "geometry": {
        "type": "LineString",
        "coordinates": [
          [
            0,
            1200
          ],
          [
            1200,
            1200
          ],
          [
            1200,
            0
          ],
          [
            0,
            0
          ],
          [
            0,
            1200
          ]
        ]
      }
    }
  ]
}