{
  "type": "FeatureCollection",
  "features": [
    {
      "type": "Feature",
      "properties": {
        "type": "spain",
        "name": "Spain"
      },
      "geometry": {
        "type": "LineString",
        "coordinates": [
          [
            -4.347843,
            43.403449
          ],
          [
            -3.517532,
            43.455901
          ],
          [
            -1.901351,
            43.422802
          ],
          [
            -1.502771,
            43.034014
          ],
          [
            0.338047,
            42.579546
          ],
          [
            0.701591,
            42.795734
          ],
          [
            1.826793,
            42.343385
          ],
          [
            2.985999,
            42.473015
          ],
          [
            3.039484,
            41.89212
          ],
          [
            2.091842,
            41.226089
          ],
          [
            0.810525,
            41.014732
          ],
          [
            0.721331,
            40.678318
          ],
          [
            0.106692,
            40.123934
          ],
          [
            -0.278711,
            39.309978
          ],
          [
            0.111291,
            38.738514
          ],
          [
            -0.467124,
            38.292366
          ],
          [
            -0.683389,
            37.642354
          ],
          [
            -1.438382,
            37.443064
          ],
          [
            -2.146453,
            36.674144
          ],
          [
            -3.415781,
            36.6589
          ],
          [
            -4.368901,
            36.677839
          ]
        ]
      }
    }
  ]
}