{
  "type": "FeatureCollection",
  "features": [
    {
      "type": "Feature",
      "properties": {
        "name": "BBOX"
      },
      "geometry": {
        "type": "LineString",
        "coordinates": [
          [
            -4.5,
            36.0
          ],
          [
            5.0,
            36.0
          ],
          [
            5.0,
            45.5
          ],
          [
            -4.5,
            45.5
          ],
          [
            -4.5,
            36.0
          ]
        ]
      }
    }
  ]
}